#aV2008  8 23  0  0   .00000000      96 DD+AD WGS84 FIT  NGA
## 1493 518400.00000000   900.00000000 54701  .0000000000000
+   31     2  3  4  5  6  7  8  9 10 11 12 13 14 15 16 17 18
+         19 20 21 22 23 24 25 26 27 28 29 30 31 32  0  0  0
+          0  0  0  0  0  0  0  0  0  0  0  0  0  0  0  0  0
+          0  0  0  0  0  0  0  0  0  0  0  0  0  0  0  0  0
+          0  0  0  0  0  0  0  0  0  0  0  0  0  0  0  0  0
++         0  0  0  0  0  0  0  0  0  0  0  0  0  0  0  0  0
++         0  0  0  0  0  0  0  0  0  0  0  0  0  0  0  0  0
++         0  0  0  0  0  0  0  0  0  0  0  0  0  0  0  0  0
++         0  0  0  0  0  0  0  0  0  0  0  0  0  0  0  0  0
++         0  0  0  0  0  0  0  0  0  0  0  0  0  0  0  0  0
%c cc cc ccc ccc cccc cccc cccc cccc ccccc ccccc ccccc ccccc
%c cc cc ccc ccc cccc cccc cccc cccc ccccc ccccc ccccc ccccc
%f  0.0000000  0.000000000  0.00000000000  0.000000000000000
%f  0.0000000  0.000000000  0.00000000000  0.000000000000000
%i    0    0    0    0      0      0      0      0         0
%i    0    0    0    0      0      0      0      0         0
/*      NGA, ST. LOUIS,MO.                                  
/*   EPHEMERIS COMPUTED FROM  3 DAYS OF DATA                
/* CCCCCCCCCCCCCCCCCCCCCCCCCCCCCCCCCCCCCCCCCCCCCCCCCCCCCCCCC
/* CCCCCCCCCCCCCCCCCCCCCCCCCCCCCCCCCCCCCCCCCCCCCCCCCCCCCCCCC
*  2008  8 23 19  0   .00000000                                                 
P  2 -22693.885794  13300.221009   1562.387725    192.744250                    
V  2  -3663.743860  -2265.083492 -31500.571270      -.027811                    
P  3  11685.291626 -16421.040508  16848.056482    273.669213                    
V  3   3972.166272  21966.177158  18715.520060       .050706                    
P  4 -24575.477523   4619.960934  -9577.801941   -150.755920                    
V  4   9407.084625  -7842.950972 -27859.852168      -.106565                    
P  5   7967.733296  18529.728646 -17637.083070    391.384162                    
V  5 -20214.031697  -8445.949847 -18171.168038     -2.497562                    
P  6  14276.366666 -11810.103979  19225.286270    167.572105                    
V  6   1475.169088  24108.150770  13845.423435       .003213                    
P  7  -8950.319213 -12363.657509  21711.424313     11.352861                    
V  7  24454.949298 -12853.186995   2668.961250       .035521                    
P  8 -20150.723236  -3430.163679  17143.181870   -166.977862                    
V  8  19351.442778  -9835.065086  20206.540121      -.014265                    
P  9  -7312.042785  18413.739670 -18268.293937     11.400734                    
V  9 -19749.822440   9627.352681  18389.827283       .017494                    
P 10 -15273.200158   6925.899870  20534.090844     -4.114041                    
V 10 -21332.130330 -15402.769546 -10282.199983      -.002849                    
P 11   3090.554644 -20120.026733 -17060.361438     21.150676                    
V 11  18872.959635 -11234.606248  17171.425550      -.006181                    
P 12   1896.092665  17554.478020 -19791.346852   -353.594832                    
V 12 -21819.069475 -12784.525907 -13278.338615       .012579                    
P 13  -6261.837925 -22282.084807  12914.216551    268.668670                    
V 13   2996.376477 -16323.923358 -26462.961297       .013619                    
P 14  13995.460986   5266.442448 -21857.364771   -228.612127                    
V 14  -2439.752760  27806.810113   5003.524476       .046192                    
P 15  -7347.722663  23783.118083   9271.339084   -164.982343                    
V 15  -2239.331319 -11831.716377  28663.073288      -.064735                    
P 16  19307.024723  -2249.197328  18255.590942    110.713001                    
V 16  18342.900220  13879.321790 -17543.888396      -.019011                    
P 17 -14738.188722  -5179.915474 -21453.515813     38.916989                    
V 17   2024.606818 -27256.211113   5012.032396      -.000501                    
P 18  18906.650045  18109.549759   5733.001610   -141.779010                    
V 18  -7332.861857  -1649.215346  30078.887549       .041795                    
P 19   8485.754597 -23760.743760   8038.950505     34.950764                    
V 19   1657.904502  10426.007406  29554.681478       .003275                    
P 20  -4852.627104 -18610.372021 -18446.958965    106.645419                    
V 20  20652.275697  10756.789583 -16352.575475      -.010485                    
P 21  14831.917136   9412.403863  20281.532883     53.363775                    
V 21 -22302.665904  11843.862199  10307.112894      -.013949                    
P 22  23450.751432  10419.193636  -6819.539785    211.250211                    
V 22   5454.423135   7677.955504  29718.566892      -.002489                    
P 23   -382.327864 -26287.262546   2506.311214    370.237531                    
V 23   2858.867976  -3137.488023 -31954.868932       .016012                    
P 24  -1227.445557  16791.109553  20763.639711    119.432527                    
V 24 -23964.596467  10024.255020  -9327.524893       .031380                    
P 25  -1942.297431 -16264.162113  21297.427311   -244.309665                    
V 25  22314.583645 -13686.116430  -8386.324521      -.311042                    
P 26 -10197.631073  20409.217452  12633.161586    314.546242                    
V 26   -354.102982 -17114.001778  26855.892325       .060408                    
P 27 -12134.413161 -10282.072495  21967.197868    212.329553                    
V 27  22384.472126 -13725.532785   6012.314027       .029152                    
P 28 -23422.237711 -11639.245057  -5161.616715    -22.029170                    
V 28  -4415.545286  -5925.672425  30721.884236      -.002488                    
P 29   5412.561575  24044.407150  10056.176990    -39.271450                    
V 29  -3327.051377  12397.836848 -28140.067236       .007674                    
P 30  15556.097183  18557.010515 -11376.217207     92.767256                    
V 30 -13281.086512  -4833.075370 -26790.873832       .020879                    
P 31  24562.617922  -7701.621637  -6577.006526    -25.072453                    
V 31  -6505.170714   6088.405952 -30383.824703       .000380                    
P 32   3218.298604 -15620.574205 -20840.801142    314.409147                    
V 32  22135.954587  16177.506493  -8355.222576       .013615                    
EOF
